ORBCOMM FM33            
1 25983U 99065D   25239.54840002  .00001011  00000+0  36223-3 0  9991
2 25983  45.0299  19.6503 0007636  70.0509 290.1163 14.40120119346351
ORBCOMM FM36            
1 25984U 99065E   25238.98109151  .00001077  00000+0  39733-3 0  9993
2 25984  45.0388 115.3668 0003284 317.9862  42.0735 14.38261913344618
ORBCOMM FM35            
1 25985U 99065F   25239.35938671  .00001058  00000+0  39955-3 0  9998
2 25985  45.0391 119.1750 0004711  28.9112 331.1997 14.37220531345028
ORBCOMM FM34            
1 25986U 99065G   25239.39407231  .00000898  00000+0  34622-3 0  9993
2 25986  45.0388 119.4674 0004786 348.1494  11.9241 14.37227890345148
ORBCOMM FM38            
1 33060U 08031A   25239.57212214  .00001874  00000+0  26325-3 0  9999
2 33060  48.4422 334.9956 0005040 338.6971  21.3735 14.81555080925333
ORBCOMM FM41            
1 33061U 08031B   25239.59820800  .00001844  00000+0  26204-3 0  9991
2 33061  48.4459 342.8981 0004434 322.3232  51.6496 14.81130315924829
ORBCOMM FM29            
1 33062U 08031C   25239.57736113  .00001933  00000+0  27264-3 0  9999
2 33062  48.4411 350.7180 0006064 324.3204  49.6142 14.81241357924733
ORBCOMM FM39            
1 33063U 08031D   25239.60851953  .00001759  00000+0  25930-3 0  9998
2 33063  48.4422  15.6312 0007158 298.3815  61.6378 14.79765737924378
